ONEWEB-0369             
1 49295U 21090S   23275.60680041 -.00000003  00000+0 -38926-4 0  9991
2 49295  87.9224 141.7297 0001876  79.2946 280.8398 13.19726616 96020
ONEWEB-0370             
1 49296U 21090T   23275.84890689  .00000039  00000+0  64282-4 0  9990
2 49296  87.9149 111.2181 0001677  87.1380 272.9945 13.20770631 99403
ONEWEB-0371             
1 49297U 21090U   23275.61470648  .00000053  00000+0  99976-4 0  9999
2 49297  87.9227 141.7171 0002041  70.1209 290.0144 13.19720817 96066
ONEWEB-0372             
1 49298U 21090V   23275.61113256 -.00000072  00000+0 -20890-3 0  9990
2 49298  87.9158 111.2636 0001998  75.3798 284.7557 13.20772532 99343
ONEWEB-0373             
1 49299U 21090W   23276.54755968  .00000088  00000+0  18539-3 0  9998
2 49299  87.9227 111.0440 0001979  96.9549 263.1810 13.20772598101950
ONEWEB-0374             
1 49300U 21090X   23276.56685683  .00000205  00000+0  51781-3 0  9996
2 49300  87.8963 126.3124 0001802  83.8277 276.3058 13.14500983 99108
ONEWEB-0375             
1 49301U 21090Y   23275.85311434 -.00000011  00000+0 -58768-4 0  9998
2 49301  87.9146 111.2192 0001496 112.3244 247.8048 13.20770929100068
ONEWEB-0376             
1 49302U 21090Z   23276.14384885  .00000033  00000+0  49806-4 0  9997
2 49302  87.9228 141.6293 0002070  75.1433 284.9928 13.19725500 97410
